IRIDIUM 150             
1 43257U 18030J   25192.95684424  .00000021  00000+0  31348-6 0  9991
2 43257  86.3941  72.7072 0001800  82.7599 277.3802 14.34217657381391
IRIDIUM 143             
1 43258U 18030K   25192.93781631  .00000049  00000+0  10454-4 0  9991
2 43258  86.3947  72.7949 0001672  82.8582 277.2804 14.34217801381326
IRIDIUM 161             
1 43478U 18047C   25192.47724759  .00000219  00000+0  59232-4 0  9996
2 43478  86.4478 230.7864 0002610  91.5898 268.5602 14.43282511375997
IRIDIUM 152             
1 43479U 18047D   25192.49192473  .00000035  00000+0  54976-5 0  9998
2 43479  86.3953 230.6410 0002432  90.0845 270.0629 14.34217768373659
IRIDIUM 147             
1 43480U 18047E   25192.84710981  .00000048  00000+0  99383-5 0  9994
2 43480  86.3954 230.4917 0002397  95.2536 264.8934 14.34217839373701
IRIDIUM 110             
1 43481U 18047F   25192.85345350  .00000034  00000+0  51479-5 0  9999
2 43481  86.3956 230.5718 0002832  92.0224 268.1296 14.34217695373693
IRIDIUM 162             
1 43482U 18047G   25192.54027002  .00000214  00000+0  57646-4 0  9998
2 43482  86.4475 230.6550 0002695  87.3687 272.7823 14.43283917375995
IRIDIUM 160             
1 43569U 18061A   25192.72951927  .00000055  00000+0  12501-4 0  9996
2 43569  86.3982 199.0313 0002541  89.9186 270.2301 14.34218214364574
